{"type": "FeatureCollection", "features": [ {"type": "Feature", "properties": {"norad_id": 34375, "name": "IRIDIUM 33 DEB", "group": "iridium-33-debris", "lat": -66.51591861277366, "lon": 175.29785032510665, "alt_km": 909.2577342269842, "timestamp": "2025-12-10T14:53:37.473321+00:00", "meta": {"OBJECT_NAME": "IRIDIUM 33 DEB", "OBJECT_ID": "1997-051FT", "EPOCH": "2025-12-10T07:35:27.786912", "MEAN_MOTION": 14.17985501, "ECCENTRICITY": 0.01031236, "INCLINATION": 86.4328, "RA_OF_ASC_NODE": 183.6751, "ARG_OF_PERICENTER": 134.3251, "MEAN_ANOMALY": 46.2443, "EPHEMERIS_TYPE": 0, "CLASSIFICATION_TYPE": "U", "NORAD_CAT_ID": 34375, "ELEMENT_SET_NO": 999, "REV_AT_EPOCH": 86677, "BSTAR": 0.00060253944, "MEAN_MOTION_DOT": 1.319e-05, "MEAN_MOTION_DDOT": 0}, "tle": {"line1": "1 34375U 97051FT  25344.31629383  .00001319  00000+0  60254-3 0  9990", "line2": "2 34375  86.4328 183.6751 0103123 134.3251  46.2443 14.17985501866773"}}, "geometry": {"type": "Point", "coordinates": [175.29785032510665, -66.51591861277366]}}, {"type": "Feature", "properties": {"norad_id": 34376, "name": "IRIDIUM 33 DEB", "group": "iridium-33-debris", "lat": -34.08174337894179, "lon": 4.982161637618757, "alt_km": 708.151851145034, "timestamp": "2025-12-10T14:53:37.473330+00:00", "meta": {"OBJECT_NAME": "IRIDIUM 33 DEB", "OBJECT_ID": "1997-051FU", "EPOCH": "2025-12-10T01:54:49.641408", "MEAN_MOTION": 14.6250541, "ECCENTRICITY": 0.0026885, "INCLINATION": 86.2988, "RA_OF_ASC_NODE": 7.7353, "ARG_OF_PERICENTER": 175.5963, "MEAN_ANOMALY": 184.549, "EPHEMERIS_TYPE": 0, "CLASSIFICATION_TYPE": "U", "NORAD_CAT_ID": 34376, "ELEMENT_SET_NO": 999, "REV_AT_EPOCH": 87968, "BSTAR": 0.0020749309, "MEAN_MOTION_DOT": 0.00010599, "MEAN_MOTION_DDOT": 0}, "tle": {"line1": "1 34376U 97051FU  25344.07974122  .00010599  00000+0  20749-2 0  9992", "line2": "2 34376  86.2988   7.7353 0026885 175.5963 184.5490 14.62505410879683"}}, "geometry": {"type": "Point", "coordinates": [4.982161637618757, -34.08174337894179]}}, {"type": "Feature", "properties": {"norad_id": 34486, "name": "IRIDIUM 33 DEB", "group": "iridium-33-debris", "lat": -70.07645676702957, "lon": 2.9814842808230733, "alt_km": 597.0087388034481, "timestamp": "2025-12-10T14:53:37.473339+00:00", "meta": {"OBJECT_NAME": "IRIDIUM 33 DEB", "OBJECT_ID": "1997-051GB", "EPOCH": "2025-12-10T02:36:03.422016", "MEAN_MOTION": 14.95601936, "ECCENTRICITY": 0.00134533, "INCLINATION": 86.3935, "RA_OF_ASC_NODE": 13.2388, "ARG_OF_PERICENTER": 121.1387, "MEAN_ANOMALY": 292.5306, "EPHEMERIS_TYPE": 0, "CLASSIFICATION_TYPE": "U", "NORAD_CAT_ID": 34486, "ELEMENT_SET_NO": 999, "REV_AT_EPOCH": 88947, "BSTAR": 0.0030255759, "MEAN_MOTION_DOT": 0.00033786, "MEAN_MOTION_DDOT": 0}, "tle": {"line1": "1 34486U 97051GB  25344.10837294  .00033786  00000+0  30256-2 0  9993", "line2": "2 34486  86.3935  13.2388 0013453 121.1387 292.5306 14.95601936889472"}}, "geometry": {"type": "Point", "coordinates": [2.9814842808230733, -70.07645676702957]}}, {"type": "Feature", "properties": {"norad_id": 34487, "name": "IRIDIUM 33 DEB", "group": "iridium-33-debris", "lat": -15.27478888129966, "lon": 12.289186520686965, "alt_km": 772.8364005802341, "timestamp": "2025-12-10T14:53:37.473349+00:00", "meta": {"OBJECT_NAME": "IRIDIUM 33 DEB", "OBJECT_ID": "1997-051GC", "EPOCH": "2025-12-10T01:47:16.386144", "MEAN_MOTION": 14.4321077, "ECCENTRICITY": 0.00325626, "INCLINATION": 86.3436, "RA_OF_ASC_NODE": 13.5248, "ARG_OF_PERICENTER": 136.7627, "MEAN_ANOMALY": 252.8644, "EPHEMERIS_TYPE": 0, "CLASSIFICATION_TYPE": "U", "NORAD_CAT_ID": 34487, "ELEMENT_SET_NO": 999, "REV_AT_EPOCH": 88210, "BSTAR": 0.00027422216, "MEAN_MOTION_DOT": 9.48e-06, "MEAN_MOTION_DDOT": 0}, "tle": {"line1": "1 34487U 97051GC  25344.07449521  .00000948  00000+0  27422-3 0  9998", "line2": "2 34487  86.3436  13.5248 0032562 136.7627 252.8644 14.43210770882100"}}, "geometry": {"type": "Point", "coordinates": [12.289186520686965, -15.27478888129966]}}, {"type": "Feature", "properties": {"norad_id": 34488, "name": "IRIDIUM 33 DEB", "group": "iridium-33-debris", "lat": 19.09058306075573, "lon": -51.86311602163482, "alt_km": 472.4567806000168, "timestamp": "2025-12-10T14:53:37.473358+00:00", "meta": {"OBJECT_NAME": "IRIDIUM 33 DEB", "OBJECT_ID": "1997-051GD", "EPOCH": "2025-12-09T15:14:24.291168", "MEAN_MOTION": 15.28228201, "ECCENTRICITY": 0.0014113, "INCLINATION": 86.3246, "RA_OF_ASC_NODE": 307.3494, "ARG_OF_PERICENTER": 56.5071, "MEAN_ANOMALY": 303.7522, "EPHEMERIS_TYPE": 0, "CLASSIFICATION_TYPE": "U", "NORAD_CAT_ID": 34488, "ELEMENT_SET_NO": 999, "REV_AT_EPOCH": 89192, "BSTAR": 0.0059279, "MEAN_MOTION_DOT": 0.00166796, "MEAN_MOTION_DDOT": 0}, "tle": {"line1": "1 34488U 97051GD  25343.63500337  .00166796  00000+0  59279-2 0  9991", "line2": "2 34488  86.3246 307.3494 0014113  56.5071 303.7522 15.28228201891924"}}, "geometry": {"type": "Point", "coordinates": [-51.86311602163482, 19.09058306075573]}}, {"type": "Feature", "properties": {"norad_id": 34492, "name": "IRIDIUM 33 DEB", "group": "iridium-33-debris", "lat": -27.04106569323931, "lon": 157.28926568317303, "alt_km": 704.15770673106, "timestamp": "2025-12-10T14:53:37.473368+00:00", "meta": {"OBJECT_NAME": "IRIDIUM 33 DEB", "OBJECT_ID": "1997-051GH", "EPOCH": "2025-12-09T22:53:18.084192", "MEAN_MOTION": 14.25612959, "ECCENTRICITY": 0.01893052, "INCLINATION": 86.4737, "RA_OF_ASC_NODE": 335.7548, "ARG_OF_PERICENTER": 247.2306, "MEAN_ANOMALY": 140.5705, "EPHEMERIS_TYPE": 0, "CLASSIFICATION_TYPE": "U", "NORAD_CAT_ID": 34492, "ELEMENT_SET_NO": 999, "REV_AT_EPOCH": 85019, "BSTAR": 0.0073090591, "MEAN_MOTION_DOT": 0.00020944, "MEAN_MOTION_DDOT": 0}, "tle": {"line1": "1 34492U 97051GH  25343.95368153  .00020944  00000+0  73091-2 0  9991", "line2": "2 34492  86.4737 335.7548 0189305 247.2306 140.5705 14.25612959850193"}}, "geometry": {"type": "Point", "coordinates": [157.28926568317303, -27.04106569323931]}}, {"type": "Feature", "properties": {"norad_id": 34497, "name": "IRIDIUM 33 DEB", "group": "iridium-33-debris", "lat": 73.66959559950618, "lon": 66.14370277190447, "alt_km": 790.5142918732254, "timestamp": "2025-12-10T14:53:37.473388+00:00", "meta": {"OBJECT_NAME": "IRIDIUM 33 DEB", "OBJECT_ID": "1997-051GN", "EPOCH": "2025-12-10T04:35:23.086752", "MEAN_MOTION": 14.2744131, "ECCENTRICITY": 0.00790645, "INCLINATION": 86.2779, "RA_OF_ASC_NODE": 53.4903, "ARG_OF_PERICENTER": 347.8917, "MEAN_ANOMALY": 40.4515, "EPHEMERIS_TYPE": 0, "CLASSIFICATION_TYPE": "U", "NORAD_CAT_ID": 34497, "ELEMENT_SET_NO": 999, "REV_AT_EPOCH": 86847, "BSTAR": 0.00082191095, "MEAN_MOTION_DOT": 2.102e-05, "MEAN_MOTION_DDOT": 0}, "tle": {"line1": "1 34497U 97051GN  25344.19123943  .00002102  00000+0  82191-3 0  9997", "line2": "2 34497  86.2779  53.4903 0079064 347.8917  40.4515 14.27441310868476"}}, "geometry": {"type": "Point", "coordinates": [66.14370277190447, 73.66959559950618]}}, {"type": "Feature", "properties": {"norad_id": 34508, "name": "IRIDIUM 33 DEB", "group": "iridium-33-debris", "lat": 32.5001901153004, "lon": -78.77641311588182, "alt_km": 722.0226898589608, "timestamp": "2025-12-10T14:53:37.473408+00:00", "meta": {"OBJECT_NAME": "IRIDIUM 33 DEB", "OBJECT_ID": "1997-051GZ", "EPOCH": "2025-12-10T07:31:50.750976", "MEAN_MOTION": 14.3839228, "ECCENTRICITY": 0.00660308, "INCLINATION": 86.3701, "RA_OF_ASC_NODE": 103.6714, "ARG_OF_PERICENTER": 180.7074, "MEAN_ANOMALY": 179.4042, "EPHEMERIS_TYPE": 0, "CLASSIFICATION_TYPE": "U", "NORAD_CAT_ID": 34508, "ELEMENT_SET_NO": 999, "REV_AT_EPOCH": 87274, "BSTAR": 0.0023946781, "MEAN_MOTION_DOT": 7.507e-05, "MEAN_MOTION_DDOT": 0}, "tle": {"line1": "1 34508U 97051GZ  25344.31378184  .00007507  00000+0  23947-2 0  9990", "line2": "2 34508  86.3701 103.6714 0066030 180.7074 179.4042 14.38392280872746"}}, "geometry": {"type": "Point", "coordinates": [-78.77641311588182, 32.5001901153004]}}, {"type": "Feature", "properties": {"norad_id": 34521, "name": "IRIDIUM 33 DEB", "group": "iridium-33-debris", "lat": 44.30342183335849, "lon": -152.06150467151264, "alt_km": 678.8727714534762, "timestamp": "2025-12-10T14:53:37.473418+00:00", "meta": {"OBJECT_NAME": "IRIDIUM 33 DEB", "OBJECT_ID": "1997-051HN", "EPOCH": "2025-12-10T04:25:46.195680", "MEAN_MOTION": 14.63330037, "ECCENTRICITY": 0.00013023, "INCLINATION": 86.38, "RA_OF_ASC_NODE": 31.6727, "ARG_OF_PERICENTER": 233.2821, "MEAN_ANOMALY": 126.8271, "EPHEMERIS_TYPE": 0, "CLASSIFICATION_TYPE": "U", "NORAD_CAT_ID": 34521, "ELEMENT_SET_NO": 999, "REV_AT_EPOCH": 88435, "BSTAR": 0.0012474492, "MEAN_MOTION_DOT": 6.461e-05, "MEAN_MOTION_DDOT": 0}, "tle": {"line1": "1 34521U 97051HN  25344.18456245  .00006461  00000+0  12474-2 0  9996", "line2": "2 34521  86.3800  31.6727 0001302 233.2821 126.8271 14.63330037884350"}}, "geometry": {"type": "Point", "coordinates": [-152.06150467151264, 44.30342183335849]}}, {"type": "Feature", "properties": {"norad_id": 34525, "name": "IRIDIUM 33 DEB", "group": "iridium-33-debris", "lat": 69.30092126822704, "lon": -141.9165834275334, "alt_km": 737.6080664688188, "timestamp": "2025-12-10T14:53:37.473427+00:00", "meta": {"OBJECT_NAME": "IRIDIUM 33 DEB", "OBJECT_ID": "1997-051HS", "EPOCH": "2025-12-10T04:38:50.001792", "MEAN_MOTION": 14.4289587, "ECCENTRICITY": 0.00067045, "INCLINATION": 86.3727, "RA_OF_ASC_NODE": 47.9303, "ARG_OF_PERICENTER": 101.2221, "MEAN_ANOMALY": 312.8304, "EPHEMERIS_TYPE": 0, "CLASSIFICATION_TYPE": "U", "NORAD_CAT_ID": 34525, "ELEMENT_SET_NO": 999, "REV_AT_EPOCH": 88051, "BSTAR": 0.00052559827, "MEAN_MOTION_DOT": 1.775e-05, "MEAN_MOTION_DDOT": 0}, "tle": {"line1": "1 34525U 97051HS  25344.19363428  .00001775  00000+0  52560-3 0  9995", "line2": "2 34525  86.3727  47.9303 0006704 101.2221 312.8304 14.42895870880517"}}, "geometry": {"type": "Point", "coordinates": [-141.9165834275334, 69.30092126822704]}}]}